IRIDIUM 36 [-]          
1 24967U 97056C   23340.29002749  .00000542  00000+0  17793-3 0  9990
2 24967  86.3985  47.6553 0002182  89.9913 270.1534 14.36539967371951
IRIDIUM 39 [-]          
1 25042U 97069D   23340.34481105  .00001012  00000+0  26924-3 0  9991
2 25042  86.3913  90.5003 0018753  17.5548 342.6299 14.47550913368074
IRIDIUM 38 [-]          
1 25043U 97069E   23340.42859168  .00000705  00000+0  23138-3 0  9991
2 25043  86.3951 108.0816 0003565 120.6249 239.5300 14.37000530365688
IRIDIUM 42 [-]          
1 25077U 97077A   23340.46148055  .00000667  00000+0  22626-3 0  9995
2 25077  86.3953 113.5574 0002537 104.6192 255.5285 14.35300549361021
IRIDIUM 44 [-]          
1 25078U 97077B   23340.37988772  .00000702  00000+0  22081-3 0  9999
2 25078  86.3949  97.0121 0003822  79.7622 280.4007 14.39108712363303
IRIDIUM 45 [-]          
1 25104U 97082A   23340.43563696  .00009023  00000+0  56784-3 0  9998
2 25104  86.3738 312.7846 0173299 220.4709 138.3529 14.97344861367818
IRIDIUM 24 [-]          
1 25105U 97082B   23340.42856505  .00000745  00000+0  22607-3 0  9991
2 25105  86.3890 316.9189 0013526 117.4717 242.7859 14.40868401362724
IRIDIUM 51 [-]          
1 25262U 98018A   23340.43158712  .00010148  00000+0  54444-3 0  9993
2 25262  86.3907 323.1719 0160796 172.6557 187.7092 15.04251163362227
